COSMOS 2600             
1 67674U 26023A   26064.79503734  .00082036  00000+0  37731-3 0  9991
2 67674  96.6428 140.5618 0002149 352.0041   8.1195 15.83390719  4434
2026-023B               
1 67675U 26023B   26064.77793493  .00012978  00000+0  55302-3 0  9995
2 67675  96.6362 138.1787 0019359 145.2597 214.9910 15.22884832  4261
2026-023C               
1 67676U 26023C   26064.44800086  .00015585  00000+0  66102-3 0  9994
2 67676  96.6398 137.9108 0020390 136.8025 223.4817 15.22987192  4370
2026-023D               
1 67677U 26023D   26064.71345252  .00012805  00000+0  54660-3 0  9992
2 67677  96.6428 138.1323 0020585 140.7052 219.5685 15.22805720  4248
2026-023E               
1 67678U 26023E   26064.84267497  .00014759  00000+0  62626-3 0  9992
2 67678  96.6320 138.2277 0020342 139.7749 220.5000 15.22984913  4268
2026-023F               
1 67679U 26023F   26064.84003791  .00014788  00000+0  62395-3 0  9993
2 67679  96.6325 140.7281 0022135 134.5723 225.7327 15.23139449  4259
2026-023G               
1 67680U 26023G   26064.84077546  .00015547  00000+0  65596-3 0  9994
2 67680  96.6255 140.7092 0023668 131.2883 229.0399 15.23097821  4259
2026-023H               
1 67681U 26023H   26064.84095168  .00013716  00000+0  58037-3 0  9993
2 67681  96.6402 140.7425 0023767 130.6569 229.6741 15.23023637  4259
2026-023J               
1 67682U 26023J   26064.83971303  .00014591  00000+0  61520-3 0  9990
2 67682  96.6355 140.7462 0023859 127.5039 232.8373 15.23129096  4250
ISS OBJECT XZ           
1 67683U 98067XZ  26063.31738248  .00052289  00000+0  87421-3 0  9993
2 67683  51.6304  98.5346 0009491 167.7937 192.3284 15.51337660  3952
GXIBA-1                 
1 67684U 98067YA  26064.45583860  .00080338  00000+0  12309-2 0  9996
2 67684  51.6299  92.6362 0010970 161.6042 198.5347 15.53561731  4132
CORAL                   
1 67685U 98067YB  26064.34454096  .00046853  00000+0  77286-3 0  9993
2 67685  51.6309  93.3938 0011326 167.4976 192.6297 15.51741434  4113
